{
"type": "FeatureCollection",
"name": "mes_zones",
"crs": { "type": "name", "properties": { "name": "urn:ogc:def:crs:EPSG::2154" } },
"features": [
{ "type": "Feature", "properties": { "Nom": "a", "Description": "b", "Couleur": "#FF0000" }, "geometry": { "type": "Polygon", "coordinates": [ [ [ 937326.25, 6419234.25 ], [ 967636.75, 6419234.25 ], [ 967636.75, 6448909.75 ], [ 937326.25, 6448909.75 ], [ 937326.25, 6419234.25 ] ] ] } },
{ "type": "Feature", "properties": { "Nom": "a", "Description": "b", "Couleur": "#FF0000" }, "geometry": { "type": "Polygon", "coordinates": [ [ [ 880000.0, 6341000.0 ], [ 884000.0, 6341000.0 ], [ 884000.0, 6345000.0 ], [ 880000.0, 6345000.0 ], [ 880000.0, 6341000.0 ] ] ] } },
{ "type": "Feature", "properties": { "Nom": "a", "Description": "b", "Couleur": "#FF0000" }, "geometry": { "type": "Polygon", "coordinates": [ [ [ 466999.859999999869615, 6733999.83 ], [ 473000.060000000055879, 6733999.83 ], [ 473000.060000000055879, 6740000.03000000026077 ], [ 466999.859999999869615, 6740000.03000000026077 ], [ 466999.859999999869615, 6733999.83 ] ] ] } },
{ "type": "Feature", "properties": { "Nom": "a", "Description": "b", "Couleur": "#FF0000" }, "geometry": { "type": "Polygon", "coordinates": [ [ [ 667999.75, 6860000.25 ], [ 669999.75, 6860000.25 ], [ 669999.75, 6862000.25 ], [ 667999.75, 6862000.25 ], [ 667999.75, 6860000.25 ] ] ] } },
{ "type": "Feature", "properties": { "Nom": "a", "Description": "b", "Couleur": "#FF0000" }, "geometry": { "type": "Polygon", "coordinates": [ [ [ 947526.75, 6676440.75 ], [ 955649.75, 6676440.75 ], [ 955649.75, 6685486.25 ], [ 947526.75, 6685486.25 ], [ 947526.75, 6676440.75 ] ] ] } },
{ "type": "Feature", "properties": { "Nom": "a", "Description": "b", "Couleur": "#FF0000" }, "geometry": { "type": "Polygon", "coordinates": [ [ [ 558999.75, 6927000.25 ], [ 565999.75, 6927000.25 ], [ 565999.75, 6932000.25 ], [ 558999.75, 6932000.25 ], [ 558999.75, 6927000.25 ] ] ] } },
{ "type": "Feature", "properties": { "Nom": "a", "Description": "b", "Couleur": "#FF0000" }, "geometry": { "type": "Polygon", "coordinates": [ [ [ 10207530.876996513456106, 434284.16203308198601 ], [ 10306462.350223276764154, 510398.888697311282158 ], [ 10239382.148280026391149, 596481.402740254998207 ], [ 10141516.143025072291493, 521136.940557118505239 ], [ 10207530.876996513456106, 434284.16203308198601 ] ] ] } },
{ "type": "Feature", "properties": { "Nom": "a", "Description": "b", "Couleur": "#FF0000" }, "geometry": { "type": "Polygon", "coordinates": [ [ [ 922000.0, 6322000.0 ], [ 923000.0, 6322000.0 ], [ 923000.0, 6323000.0 ], [ 922000.0, 6323000.0 ], [ 922000.0, 6322000.0 ] ] ] } },
{ "type": "Feature", "properties": { "Nom": "a", "Description": "b", "Couleur": "#FF0000" }, "geometry": { "type": "Polygon", "coordinates": [ [ [ 961874.25, 6511379.25 ], [ 970623.75, 6511379.25 ], [ 970623.75, 6517283.25 ], [ 961874.25, 6517283.25 ], [ 961874.25, 6511379.25 ] ] ] } },
{ "type": "Feature", "properties": { "Nom": "a", "Description": "b", "Couleur": "#FF0000" }, "geometry": { "type": "Polygon", "coordinates": [ [ [ 987000.0, 6584000.0 ], [ 991000.0, 6584000.0 ], [ 991000.0, 6588000.0 ], [ 987000.0, 6588000.0 ], [ 987000.0, 6584000.0 ] ] ] } },
{ "type": "Feature", "properties": { "Nom": "a", "Description": "b", "Couleur": "#FF0000" }, "geometry": { "type": "Polygon", "coordinates": [ [ [ 553000.0, 6413999.990000000223517 ], [ 554000.0, 6413999.990000000223517 ], [ 554000.0, 6414999.990000000223517 ], [ 553000.0, 6414999.990000000223517 ], [ 553000.0, 6413999.990000000223517 ] ] ] } },
{ "type": "Feature", "properties": { "Nom": "a", "Description": "b", "Couleur": "#FF0000" }, "geometry": { "type": "Polygon", "coordinates": [ [ [ 945000.0, 6501000.0 ], [ 947000.0, 6501000.0 ], [ 947000.0, 6503000.0 ], [ 945000.0, 6503000.0 ], [ 945000.0, 6501000.0 ] ] ] } }
]
}
